[{"OBJECT_NAME":"STARLINK-4450","OBJECT_ID":"2022-099AC","EPOCH":"2026-03-09T21:12:08.818560","MEAN_MOTION":15.01260046,"ECCENTRICITY":0.00015385,"INCLINATION":97.6031,"RA_OF_ASC_NODE":190.4191,"ARG_OF_PERICENTER":181.7792,"MEAN_ANOMALY":178.3428,"EPHEMERIS_TYPE":0,"CLASSIFICATION_TYPE":"U","NORAD_CAT_ID":53491,"ELEMENT_SET_NO":999,"REV_AT_EPOCH":19601,"BSTAR":9.4511665e-5,"MEAN_MOTION_DOT":1.156e-5,"MEAN_MOTION_DDOT":0},{"OBJECT_NAME":"FENGYUN 1C DEB","OBJECT_ID":"1999-025CKZ","EPOCH":"2026-02-15T20:48:10.966176","MEAN_MOTION":14.69381024,"ECCENTRICITY":0.01433438,"INCLINATION":98.7052,"RA_OF_ASC_NODE":280.8773,"ARG_OF_PERICENTER":16.818,"MEAN_ANOMALY":343.7704,"EPHEMERIS_TYPE":0,"CLASSIFICATION_TYPE":"U","NORAD_CAT_ID":31898,"ELEMENT_SET_NO":999,"REV_AT_EPOCH":66668,"BSTAR":0.00094596182,"MEAN_MOTION_DOT":6.49e-5,"MEAN_MOTION_DDOT":0}]
